CCSDS_OMM_VERS = 2.0
CREATION_DATE  = 
ORIGINATOR     = 

OBJECT_NAME    = STARLINK-35365
OBJECT_ID      = 2025-243K
CENTER_NAME    = EARTH
REF_FRAME      = TEME
TIME_SYSTEM    = UTC
MEAN_ELEMENT_THEORY = SGP/SGP4

EPOCH          = 2025-11-16T20:00:01.999008
MEAN_MOTION    = 15.63732837
ECCENTRICITY   = .0001082
INCLINATION    = 53.1593
RA_OF_ASC_NODE = 50.9085
ARG_OF_PERICENTER = 45.7492
MEAN_ANOMALY   = 351.3334

EPHEMERIS_TYPE = 0
CLASSIFICATION_TYPE = U
NORAD_CAT_ID   = 66186
ELEMENT_SET_NO = 999
REV_AT_EPOCH   = 442
BSTAR          = -.24172E-1
MEAN_MOTION_DOT = -.2019832E-1
MEAN_MOTION_DDOT = 0

CCSDS_OMM_VERS = 2.0
CREATION_DATE  = 
ORIGINATOR     = 

OBJECT_NAME    = STARLINK-35350
OBJECT_ID      = 2025-243L
CENTER_NAME    = EARTH
REF_FRAME      = TEME
TIME_SYSTEM    = UTC
MEAN_ELEMENT_THEORY = SGP/SGP4

EPOCH          = 2025-11-16T20:00:01.999008
MEAN_MOTION    = 15.63731496
ECCENTRICITY   = .0001125
INCLINATION    = 53.1593
RA_OF_ASC_NODE = 50.9048
ARG_OF_PERICENTER = 43.1303
MEAN_ANOMALY   = 355.8673

EPHEMERIS_TYPE = 0
CLASSIFICATION_TYPE = U
NORAD_CAT_ID   = 66187
ELEMENT_SET_NO = 999
REV_AT_EPOCH   = 442
BSTAR          = -.24128E-1
MEAN_MOTION_DOT = -.2016501E-1
MEAN_MOTION_DDOT = 0

CCSDS_OMM_VERS = 2.0
CREATION_DATE  = 
ORIGINATOR     = 

OBJECT_NAME    = STARLINK-35041
OBJECT_ID      = 2025-243M
CENTER_NAME    = EARTH
REF_FRAME      = TEME
TIME_SYSTEM    = UTC
MEAN_ELEMENT_THEORY = SGP/SGP4

EPOCH          = 2025-11-16T20:00:01.999008
MEAN_MOTION    = 15.63728038
ECCENTRICITY   = .0001126
INCLINATION    = 53.1588
RA_OF_ASC_NODE = 50.8888
ARG_OF_PERICENTER = 48.7521
MEAN_ANOMALY   = 357.9156

EPHEMERIS_TYPE = 0
CLASSIFICATION_TYPE = U
NORAD_CAT_ID   = 66188
ELEMENT_SET_NO = 999
REV_AT_EPOCH   = 447
BSTAR          = -.24077E-1
MEAN_MOTION_DOT = -.2012539E-1
MEAN_MOTION_DDOT = 0

CCSDS_OMM_VERS = 2.0
CREATION_DATE  = 
ORIGINATOR     = 

OBJECT_NAME    = STARLINK-34694
OBJECT_ID      = 2025-243N
CENTER_NAME    = EARTH
REF_FRAME      = TEME
TIME_SYSTEM    = UTC
MEAN_ELEMENT_THEORY = SGP/SGP4

EPOCH          = 2025-11-16T20:00:01.999008
MEAN_MOTION    = 15.63729025
ECCENTRICITY   = .0001085
INCLINATION    = 53.1593
RA_OF_ASC_NODE = 50.8808
ARG_OF_PERICENTER = 51.9543
MEAN_ANOMALY   = 358.5467

EPHEMERIS_TYPE = 0
CLASSIFICATION_TYPE = U
NORAD_CAT_ID   = 66189
ELEMENT_SET_NO = 999
REV_AT_EPOCH   = 442
BSTAR          = -.2409E-1
MEAN_MOTION_DOT = -.2013562E-1
MEAN_MOTION_DDOT = 0

CCSDS_OMM_VERS = 2.0
CREATION_DATE  = 
ORIGINATOR     = 

OBJECT_NAME    = STARLINK-34863
OBJECT_ID      = 2025-243P
CENTER_NAME    = EARTH
REF_FRAME      = TEME
TIME_SYSTEM    = UTC
MEAN_ELEMENT_THEORY = SGP/SGP4

EPOCH          = 2025-11-16T20:00:01.999008
MEAN_MOTION    = 15.63732569
ECCENTRICITY   = .0001115
INCLINATION    = 53.1592
RA_OF_ASC_NODE = 50.8957
ARG_OF_PERICENTER = 47.7780
MEAN_ANOMALY   = 355.0545

EPHEMERIS_TYPE = 0
CLASSIFICATION_TYPE = U
NORAD_CAT_ID   = 66190
ELEMENT_SET_NO = 999
REV_AT_EPOCH   = 442
BSTAR          = -.24159E-1
MEAN_MOTION_DOT = -.2018856E-1
MEAN_MOTION_DDOT = 0

CCSDS_OMM_VERS = 2.0
CREATION_DATE  = 
ORIGINATOR     = 

OBJECT_NAME    = STARLINK-35061
OBJECT_ID      = 2025-243Q
CENTER_NAME    = EARTH
REF_FRAME      = TEME
TIME_SYSTEM    = UTC
MEAN_ELEMENT_THEORY = SGP/SGP4

EPOCH          = 2025-11-16T20:00:01.999008
MEAN_MOTION    = 15.63729327
ECCENTRICITY   = .000124
INCLINATION    = 53.1593
RA_OF_ASC_NODE = 50.8563
ARG_OF_PERICENTER = 53.3010
MEAN_ANOMALY   = 8.7030

EPHEMERIS_TYPE = 0
CLASSIFICATION_TYPE = U
NORAD_CAT_ID   = 66191
ELEMENT_SET_NO = 999
REV_AT_EPOCH   = 447
BSTAR          = -.24125E-1
MEAN_MOTION_DOT = -.2016227E-1
MEAN_MOTION_DDOT = 0

CCSDS_OMM_VERS = 2.0
CREATION_DATE  = 
ORIGINATOR     = 

OBJECT_NAME    = STARLINK-34937
OBJECT_ID      = 2025-243R
CENTER_NAME    = EARTH
REF_FRAME      = TEME
TIME_SYSTEM    = UTC
MEAN_ELEMENT_THEORY = SGP/SGP4

EPOCH          = 2025-11-14T18:47:43.474848
MEAN_MOTION    = 15.73455685
ECCENTRICITY   = .00016936
INCLINATION    = 53.1582
RA_OF_ASC_NODE = 60.9404
ARG_OF_PERICENTER = 51.1444
MEAN_ANOMALY   = 308.9726

EPHEMERIS_TYPE = 0
CLASSIFICATION_TYPE = U
NORAD_CAT_ID   = 66192
ELEMENT_SET_NO = 999
REV_AT_EPOCH   = 303
BSTAR          = -.65264813E-3
MEAN_MOTION_DOT = -.9223E-3
MEAN_MOTION_DDOT = 0

CCSDS_OMM_VERS = 2.0
CREATION_DATE  = 
ORIGINATOR     = 

OBJECT_NAME    = STARLINK-35197
OBJECT_ID      = 2025-243S
CENTER_NAME    = EARTH
REF_FRAME      = TEME
TIME_SYSTEM    = UTC
MEAN_ELEMENT_THEORY = SGP/SGP4

EPOCH          = 2025-11-16T20:00:01.999008
MEAN_MOTION    = 15.63730890
ECCENTRICITY   = .0001214
INCLINATION    = 53.1591
RA_OF_ASC_NODE = 50.8639
ARG_OF_PERICENTER = 46.0209
MEAN_ANOMALY   = 12.1492

EPHEMERIS_TYPE = 0
CLASSIFICATION_TYPE = U
NORAD_CAT_ID   = 66193
ELEMENT_SET_NO = 999
REV_AT_EPOCH   = 442
BSTAR          = -.24165E-1
MEAN_MOTION_DOT = -.2019271E-1
MEAN_MOTION_DDOT = 0

CCSDS_OMM_VERS = 2.0
CREATION_DATE  = 
ORIGINATOR     = 

OBJECT_NAME    = STARLINK-35374
OBJECT_ID      = 2025-243T
CENTER_NAME    = EARTH
REF_FRAME      = TEME
TIME_SYSTEM    = UTC
MEAN_ELEMENT_THEORY = SGP/SGP4

EPOCH          = 2025-11-16T20:00:01.999008
MEAN_MOTION    = 15.63726457
ECCENTRICITY   = .0001213
INCLINATION    = 53.1591
RA_OF_ASC_NODE = 50.8679
ARG_OF_PERICENTER = 54.4500
MEAN_ANOMALY   = 1.8042

EPHEMERIS_TYPE = 0
CLASSIFICATION_TYPE = U
NORAD_CAT_ID   = 66194
ELEMENT_SET_NO = 999
REV_AT_EPOCH   = 442
BSTAR          = -.24064E-1
MEAN_MOTION_DOT = -.2011533E-1
MEAN_MOTION_DDOT = 0

CCSDS_OMM_VERS = 2.0
CREATION_DATE  = 
ORIGINATOR     = 

OBJECT_NAME    = STARLINK-34813
OBJECT_ID      = 2025-243U
CENTER_NAME    = EARTH
REF_FRAME      = TEME
TIME_SYSTEM    = UTC
MEAN_ELEMENT_THEORY = SGP/SGP4

EPOCH          = 2025-11-16T20:00:01.999008
MEAN_MOTION    = 15.63725687
ECCENTRICITY   = .0001199
INCLINATION    = 53.1591
RA_OF_ASC_NODE = 50.8724
ARG_OF_PERICENTER = 51.2033
MEAN_ANOMALY   = 3.1343

EPHEMERIS_TYPE = 0
CLASSIFICATION_TYPE = U
NORAD_CAT_ID   = 66195
ELEMENT_SET_NO = 999
REV_AT_EPOCH   = 442
BSTAR          = -.24058E-1
MEAN_MOTION_DOT = -.2011018E-1
MEAN_MOTION_DDOT = 0

CCSDS_OMM_VERS = 2.0
CREATION_DATE  = 
ORIGINATOR     = 

OBJECT_NAME    = STARLINK-35409
OBJECT_ID      = 2025-243V
CENTER_NAME    = EARTH
REF_FRAME      = TEME
TIME_SYSTEM    = UTC
MEAN_ELEMENT_THEORY = SGP/SGP4

EPOCH          = 2025-11-16T20:00:01.999008
MEAN_MOTION    = 15.63727662
ECCENTRICITY   = .0001174
INCLINATION    = 53.1591
RA_OF_ASC_NODE = 50.8766
ARG_OF_PERICENTER = 48.2970
MEAN_ANOMALY   = 4.1213

EPHEMERIS_TYPE = 0
CLASSIFICATION_TYPE = U
NORAD_CAT_ID   = 66196
ELEMENT_SET_NO = 999
REV_AT_EPOCH   = 442
BSTAR          = -.24069E-1
MEAN_MOTION_DOT = -.2011984E-1
MEAN_MOTION_DDOT = 0

CCSDS_OMM_VERS = 2.0
CREATION_DATE  = 
ORIGINATOR     = 

OBJECT_NAME    = STARLINK-35518
OBJECT_ID      = 2025-243X
CENTER_NAME    = EARTH
REF_FRAME      = TEME
TIME_SYSTEM    = UTC
MEAN_ELEMENT_THEORY = SGP/SGP4

EPOCH          = 2025-11-16T20:00:01.999008
MEAN_MOTION    = 15.63730633
ECCENTRICITY   = .0001089
INCLINATION    = 53.1590
RA_OF_ASC_NODE = 50.8845
ARG_OF_PERICENTER = 48.9202
MEAN_ANOMALY   = 359.6649

EPHEMERIS_TYPE = 0
CLASSIFICATION_TYPE = U
NORAD_CAT_ID   = 66197
ELEMENT_SET_NO = 999
REV_AT_EPOCH   = 442
BSTAR          = -.24141E-1
MEAN_MOTION_DOT = -.2017386E-1
MEAN_MOTION_DDOT = 0

