STARLINK-35365          
1 66186U 25243K   25320.83335647 -.02019832  00000+0 -24172-1 0  9997
2 66186  53.1593  50.9085 0001082  45.7492 351.3334 15.63732837  4421
STARLINK-35350          
1 66187U 25243L   25320.83335647 -.02016501  00000+0 -24128-1 0  9999
2 66187  53.1593  50.9048 0001125  43.1303 355.8673 15.63731496  4427
STARLINK-35041          
1 66188U 25243M   25320.83335647 -.02012539  00000+0 -24077-1 0  9990
2 66188  53.1588  50.8888 0001126  48.7521 357.9156 15.63728038  4479
STARLINK-34694          
1 66189U 25243N   25320.83335647 -.02013562  00000+0 -24090-1 0  9993
2 66189  53.1593  50.8808 0001085  51.9543 358.5467 15.63729025  4426
STARLINK-34863          
1 66190U 25243P   25320.83335647 -.02018856  00000+0 -24159-1 0  9992
2 66190  53.1592  50.8957 0001115  47.7780 355.0545 15.63732569  4428
STARLINK-35061          
1 66191U 25243Q   25320.83335647 -.02016227  00000+0 -24125-1 0  9996
2 66191  53.1593  50.8563 0001240  53.3010   8.7030 15.63729327  4475
STARLINK-34937          
1 66192U 25243R   25318.78314207 -.00092230  00000+0 -65265-3 0  9995
2 66192  53.1582  60.9404 0001693  51.1444 308.9726 15.73455685  3031
STARLINK-35197          
1 66193U 25243S   25320.83335647 -.02019271  00000+0 -24165-1 0  9994
2 66193  53.1591  50.8639 0001214  46.0209  12.1492 15.63730890  4422
STARLINK-35374          
1 66194U 25243T   25320.83335647 -.02011533  00000+0 -24064-1 0  9996
2 66194  53.1591  50.8679 0001213  54.4500   1.8042 15.63726457  4423
STARLINK-34813          
1 66195U 25243U   25320.83335647 -.02011018  00000+0 -24058-1 0  9998
2 66195  53.1591  50.8724 0001199  51.2033   3.1343 15.63725687  4427
STARLINK-35409          
1 66196U 25243V   25320.83335647 -.02011984  00000+0 -24069-1 0  9993
2 66196  53.1591  50.8766 0001174  48.2970   4.1213 15.63727662  4425
STARLINK-35518          
1 66197U 25243X   25320.83335647 -.02017386  00000+0 -24141-1 0  9997
2 66197  53.1590  50.8845 0001089  48.9202 359.6649 15.63730633  4426
